IRIDIUM 39              
1 25042U 97069D   25298.13731144  .00000825  00000+0  21024-3 0  9990
2 25042  86.3935 155.4745 0016006 228.6233 131.3596 14.49404160467782
IRIDIUM 38              
1 25043U 97069E   25298.20811074  .00000582  00000+0  18500-3 0  9995
2 25043  86.4015 178.5069 0003654  59.3059 300.8499 14.38249821464644
IRIDIUM 42              
1 25077U 97077A   25298.23494738  .00000578  00000+0  19063-3 0  9998
2 25077  86.4025 184.8182 0002831  75.6681 284.4830 14.36476974459869
IRIDIUM 44              
1 25078U 97077B   25298.18561948  .00000586  00000+0  17855-3 0  9997
2 25078  86.4000 166.4417 0001892  29.8294 330.3013 14.40371476462412
IRIDIUM 45              
1 25104U 97082A   25298.19809794  .00030488  00000+0  94229-3 0  9992
2 25104  86.3578 344.5366 0104062 201.3933 158.2951 15.28120863471858
IRIDIUM 24              
1 25105U 97082B   25298.26811006  .00000720  00000+0  21217-3 0  9993
2 25105  86.3955  25.1060 0011735  18.8217 341.3415 14.42258575461969
IRIDIUM 51              
1 25262U 98018A   25298.18179786  .00076931  00000+0  11249-2 0  9990
2 25262  86.3799 350.9706 0067902 107.1889 253.6821 15.52626188467096
IRIDIUM 57              
1 25273U 98019B   25297.92580294  .00000574  00000+0  19106-3 0  9995
2 25273  86.3914  90.8660 0002110  87.1387 273.0051 14.35992269443402
