<?xml version="1.0" encoding="UTF-8"?>
<ndm xmlns:xsi="http://www.w3.org/2001/XMLSchema-instance" xsi:noNamespaceSchemaLocation="https://sanaregistry.org/r/ndmxml_unqualified/ndmxml-2.0.0-master-2.0.xsd">
<omm id="CCSDS_OMM_VERS" version="2.0">
<header><CREATION_DATE/><ORIGINATOR/></header><body><segment><metadata><OBJECT_NAME>IRIDIUM 39</OBJECT_NAME><OBJECT_ID>1997-069D</OBJECT_ID><CENTER_NAME>EARTH</CENTER_NAME><REF_FRAME>TEME</REF_FRAME><TIME_SYSTEM>UTC</TIME_SYSTEM><MEAN_ELEMENT_THEORY>SGP4</MEAN_ELEMENT_THEORY></metadata><data><meanElements><EPOCH>2025-10-25T03:17:43.708416</EPOCH><MEAN_MOTION>14.49404160</MEAN_MOTION><ECCENTRICITY>.00160069</ECCENTRICITY><INCLINATION>86.3935</INCLINATION><RA_OF_ASC_NODE>155.4745</RA_OF_ASC_NODE><ARG_OF_PERICENTER>228.6233</ARG_OF_PERICENTER><MEAN_ANOMALY>131.3596</MEAN_ANOMALY></meanElements><tleParameters><EPHEMERIS_TYPE>0</EPHEMERIS_TYPE><CLASSIFICATION_TYPE>U</CLASSIFICATION_TYPE><NORAD_CAT_ID>25042</NORAD_CAT_ID><ELEMENT_SET_NO>999</ELEMENT_SET_NO><REV_AT_EPOCH>46778</REV_AT_EPOCH><BSTAR>.21023984E-3</BSTAR><MEAN_MOTION_DOT>.825E-5</MEAN_MOTION_DOT><MEAN_MOTION_DDOT>0</MEAN_MOTION_DDOT></tleParameters></data></segment></body></omm>
<omm id="CCSDS_OMM_VERS" version="2.0">
<header><CREATION_DATE/><ORIGINATOR/></header><body><segment><metadata><OBJECT_NAME>IRIDIUM 38</OBJECT_NAME><OBJECT_ID>1997-069E</OBJECT_ID><CENTER_NAME>EARTH</CENTER_NAME><REF_FRAME>TEME</REF_FRAME><TIME_SYSTEM>UTC</TIME_SYSTEM><MEAN_ELEMENT_THEORY>SGP4</MEAN_ELEMENT_THEORY></metadata><data><meanElements><EPOCH>2025-10-25T04:59:40.767936</EPOCH><MEAN_MOTION>14.38249821</MEAN_MOTION><ECCENTRICITY>.00036544</ECCENTRICITY><INCLINATION>86.4015</INCLINATION><RA_OF_ASC_NODE>178.5069</RA_OF_ASC_NODE><ARG_OF_PERICENTER>59.3059</ARG_OF_PERICENTER><MEAN_ANOMALY>300.8499</MEAN_ANOMALY></meanElements><tleParameters><EPHEMERIS_TYPE>0</EPHEMERIS_TYPE><CLASSIFICATION_TYPE>U</CLASSIFICATION_TYPE><NORAD_CAT_ID>25043</NORAD_CAT_ID><ELEMENT_SET_NO>999</ELEMENT_SET_NO><REV_AT_EPOCH>46464</REV_AT_EPOCH><BSTAR>.18500307E-3</BSTAR><MEAN_MOTION_DOT>.582E-5</MEAN_MOTION_DOT><MEAN_MOTION_DDOT>0</MEAN_MOTION_DDOT></tleParameters></data></segment></body></omm>
<omm id="CCSDS_OMM_VERS" version="2.0">
<header><CREATION_DATE/><ORIGINATOR/></header><body><segment><metadata><OBJECT_NAME>IRIDIUM 42</OBJECT_NAME><OBJECT_ID>1997-077A</OBJECT_ID><CENTER_NAME>EARTH</CENTER_NAME><REF_FRAME>TEME</REF_FRAME><TIME_SYSTEM>UTC</TIME_SYSTEM><MEAN_ELEMENT_THEORY>SGP4</MEAN_ELEMENT_THEORY></metadata><data><meanElements><EPOCH>2025-10-25T05:38:19.453632</EPOCH><MEAN_MOTION>14.36476974</MEAN_MOTION><ECCENTRICITY>.00028315</ECCENTRICITY><INCLINATION>86.4025</INCLINATION><RA_OF_ASC_NODE>184.8182</RA_OF_ASC_NODE><ARG_OF_PERICENTER>75.6681</ARG_OF_PERICENTER><MEAN_ANOMALY>284.4830</MEAN_ANOMALY></meanElements><tleParameters><EPHEMERIS_TYPE>0</EPHEMERIS_TYPE><CLASSIFICATION_TYPE>U</CLASSIFICATION_TYPE><NORAD_CAT_ID>25077</NORAD_CAT_ID><ELEMENT_SET_NO>999</ELEMENT_SET_NO><REV_AT_EPOCH>45986</REV_AT_EPOCH><BSTAR>.19063137E-3</BSTAR><MEAN_MOTION_DOT>.578E-5</MEAN_MOTION_DOT><MEAN_MOTION_DDOT>0</MEAN_MOTION_DDOT></tleParameters></data></segment></body></omm>
<omm id="CCSDS_OMM_VERS" version="2.0">
<header><CREATION_DATE/><ORIGINATOR/></header><body><segment><metadata><OBJECT_NAME>IRIDIUM 44</OBJECT_NAME><OBJECT_ID>1997-077B</OBJECT_ID><CENTER_NAME>EARTH</CENTER_NAME><REF_FRAME>TEME</REF_FRAME><TIME_SYSTEM>UTC</TIME_SYSTEM><MEAN_ELEMENT_THEORY>SGP4</MEAN_ELEMENT_THEORY></metadata><data><meanElements><EPOCH>2025-10-25T04:27:17.523072</EPOCH><MEAN_MOTION>14.40371476</MEAN_MOTION><ECCENTRICITY>.00018926</ECCENTRICITY><INCLINATION>86.4000</INCLINATION><RA_OF_ASC_NODE>166.4417</RA_OF_ASC_NODE><ARG_OF_PERICENTER>29.8294</ARG_OF_PERICENTER><MEAN_ANOMALY>330.3013</MEAN_ANOMALY></meanElements><tleParameters><EPHEMERIS_TYPE>0</EPHEMERIS_TYPE><CLASSIFICATION_TYPE>U</CLASSIFICATION_TYPE><NORAD_CAT_ID>25078</NORAD_CAT_ID><ELEMENT_SET_NO>999</ELEMENT_SET_NO><REV_AT_EPOCH>46241</REV_AT_EPOCH><BSTAR>.17854983E-3</BSTAR><MEAN_MOTION_DOT>.586E-5</MEAN_MOTION_DOT><MEAN_MOTION_DDOT>0</MEAN_MOTION_DDOT></tleParameters></data></segment></body></omm>
<omm id="CCSDS_OMM_VERS" version="2.0">
<header><CREATION_DATE/><ORIGINATOR/></header><body><segment><metadata><OBJECT_NAME>IRIDIUM 45</OBJECT_NAME><OBJECT_ID>1997-082A</OBJECT_ID><CENTER_NAME>EARTH</CENTER_NAME><REF_FRAME>TEME</REF_FRAME><TIME_SYSTEM>UTC</TIME_SYSTEM><MEAN_ELEMENT_THEORY>SGP4</MEAN_ELEMENT_THEORY></metadata><data><meanElements><EPOCH>2025-10-25T04:45:15.662016</EPOCH><MEAN_MOTION>15.28120863</MEAN_MOTION><ECCENTRICITY>.01040622</ECCENTRICITY><INCLINATION>86.3578</INCLINATION><RA_OF_ASC_NODE>344.5366</RA_OF_ASC_NODE><ARG_OF_PERICENTER>201.3933</ARG_OF_PERICENTER><MEAN_ANOMALY>158.2951</MEAN_ANOMALY></meanElements><tleParameters><EPHEMERIS_TYPE>0</EPHEMERIS_TYPE><CLASSIFICATION_TYPE>U</CLASSIFICATION_TYPE><NORAD_CAT_ID>25104</NORAD_CAT_ID><ELEMENT_SET_NO>999</ELEMENT_SET_NO><REV_AT_EPOCH>47185</REV_AT_EPOCH><BSTAR>.94229012E-3</BSTAR><MEAN_MOTION_DOT>.30488E-3</MEAN_MOTION_DOT><MEAN_MOTION_DDOT>0</MEAN_MOTION_DDOT></tleParameters></data></segment></body></omm>
<omm id="CCSDS_OMM_VERS" version="2.0">
<header><CREATION_DATE/><ORIGINATOR/></header><body><segment><metadata><OBJECT_NAME>IRIDIUM 24</OBJECT_NAME><OBJECT_ID>1997-082B</OBJECT_ID><CENTER_NAME>EARTH</CENTER_NAME><REF_FRAME>TEME</REF_FRAME><TIME_SYSTEM>UTC</TIME_SYSTEM><MEAN_ELEMENT_THEORY>SGP4</MEAN_ELEMENT_THEORY></metadata><data><meanElements><EPOCH>2025-10-25T06:26:04.709184</EPOCH><MEAN_MOTION>14.42258575</MEAN_MOTION><ECCENTRICITY>.00117358</ECCENTRICITY><INCLINATION>86.3955</INCLINATION><RA_OF_ASC_NODE>25.1060</RA_OF_ASC_NODE><ARG_OF_PERICENTER>18.8217</ARG_OF_PERICENTER><MEAN_ANOMALY>341.3415</MEAN_ANOMALY></meanElements><tleParameters><EPHEMERIS_TYPE>0</EPHEMERIS_TYPE><CLASSIFICATION_TYPE>U</CLASSIFICATION_TYPE><NORAD_CAT_ID>25105</NORAD_CAT_ID><ELEMENT_SET_NO>999</ELEMENT_SET_NO><REV_AT_EPOCH>46196</REV_AT_EPOCH><BSTAR>.21217334E-3</BSTAR><MEAN_MOTION_DOT>.72E-5</MEAN_MOTION_DOT><MEAN_MOTION_DDOT>0</MEAN_MOTION_DDOT></tleParameters></data></segment></body></omm>
<omm id="CCSDS_OMM_VERS" version="2.0">
<header><CREATION_DATE/><ORIGINATOR/></header><body><segment><metadata><OBJECT_NAME>IRIDIUM 51</OBJECT_NAME><OBJECT_ID>1998-018A</OBJECT_ID><CENTER_NAME>EARTH</CENTER_NAME><REF_FRAME>TEME</REF_FRAME><TIME_SYSTEM>UTC</TIME_SYSTEM><MEAN_ELEMENT_THEORY>SGP4</MEAN_ELEMENT_THEORY></metadata><data><meanElements><EPOCH>2025-10-25T04:21:47.335104</EPOCH><MEAN_MOTION>15.52626188</MEAN_MOTION><ECCENTRICITY>.00679022</ECCENTRICITY><INCLINATION>86.3799</INCLINATION><RA_OF_ASC_NODE>350.9706</RA_OF_ASC_NODE><ARG_OF_PERICENTER>107.1889</ARG_OF_PERICENTER><MEAN_ANOMALY>253.6821</MEAN_ANOMALY></meanElements><tleParameters><EPHEMERIS_TYPE>0</EPHEMERIS_TYPE><CLASSIFICATION_TYPE>U</CLASSIFICATION_TYPE><NORAD_CAT_ID>25262</NORAD_CAT_ID><ELEMENT_SET_NO>999</ELEMENT_SET_NO><REV_AT_EPOCH>46709</REV_AT_EPOCH><BSTAR>.11248936E-2</BSTAR><MEAN_MOTION_DOT>.76931E-3</MEAN_MOTION_DOT><MEAN_MOTION_DDOT>0</MEAN_MOTION_DDOT></tleParameters></data></segment></body></omm>
<omm id="CCSDS_OMM_VERS" version="2.0">
<header><CREATION_DATE/><ORIGINATOR/></header><body><segment><metadata><OBJECT_NAME>IRIDIUM 57</OBJECT_NAME><OBJECT_ID>1998-019B</OBJECT_ID><CENTER_NAME>EARTH</CENTER_NAME><REF_FRAME>TEME</REF_FRAME><TIME_SYSTEM>UTC</TIME_SYSTEM><MEAN_ELEMENT_THEORY>SGP4</MEAN_ELEMENT_THEORY></metadata><data><meanElements><EPOCH>2025-10-24T22:13:09.374016</EPOCH><MEAN_MOTION>14.35992269</MEAN_MOTION><ECCENTRICITY>.000211</ECCENTRICITY><INCLINATION>86.3914</INCLINATION><RA_OF_ASC_NODE>90.8660</RA_OF_ASC_NODE><ARG_OF_PERICENTER>87.1387</ARG_OF_PERICENTER><MEAN_ANOMALY>273.0051</MEAN_ANOMALY></meanElements><tleParameters><EPHEMERIS_TYPE>0</EPHEMERIS_TYPE><CLASSIFICATION_TYPE>U</CLASSIFICATION_TYPE><NORAD_CAT_ID>25273</NORAD_CAT_ID><ELEMENT_SET_NO>999</ELEMENT_SET_NO><REV_AT_EPOCH>44340</REV_AT_EPOCH><BSTAR>.19106E-3</BSTAR><MEAN_MOTION_DOT>.574E-5</MEAN_MOTION_DOT><MEAN_MOTION_DDOT>0</MEAN_MOTION_DDOT></tleParameters></data></segment></body></omm>

</ndm>
